[{"CCSDS_OMM_VERS":"2.0","COMMENT":"GENERATED VIA SPACE-TRACK.ORG API","CREATION_DATE":"2024-02-17T17:15:21","ORIGINATOR":"18 SPCS","OBJECT_NAME":"NAVSTAR 74 (USA 262)","OBJECT_ID":"2015-033A","CENTER_NAME":"EARTH","REF_FRAME":"TEME","TIME_SYSTEM":"UTC","MEAN_ELEMENT_THEORY":"SGP4","EPOCH":"2024-02-16T15:37:05.874816","MEAN_MOTION":"2.00573294","ECCENTRICITY":"0.00926710","INCLINATION":"54.7017","RA_OF_ASC_NODE":"302.0089","ARG_OF_PERICENTER":"17.0547","MEAN_ANOMALY":"343.3031","EPHEMERIS_TYPE":"0","CLASSIFICATION_TYPE":"U","NORAD_CAT_ID":"40730","ELEMENT_SET_NO":"999","REV_AT_EPOCH":"6291","BSTAR":"0.00000000000000","MEAN_MOTION_DOT":"-0.00000055","MEAN_MOTION_DDOT":"0.0000000000000","SEMIMAJOR_AXIS":"26559.492","PERIOD":"717.942","APOAPSIS":"20427.487","PERIAPSIS":"19935.228","OBJECT_TYPE":"PAYLOAD","RCS_SIZE":"LARGE","COUNTRY_CODE":"US","LAUNCH_DATE":"2015-07-15","SITE":"AFETR","DECAY_DATE":null,"FILE":"4191255","GP_ID":"249481707","TLE_LINE0":"0 NAVSTAR 74 (USA 262)","TLE_LINE1":"1 40730U 15033A   24047.65076244 -.00000055  00000-0  00000-0 0  9998","TLE_LINE2":"2 40730  54.7017 302.0089 0092671  17.0547 343.3031  2.00573294 62918"},{"CCSDS_OMM_VERS":"2.0","COMMENT":"GENERATED VIA SPACE-TRACK.ORG API","CREATION_DATE":"2024-02-17T17:15:21","ORIGINATOR":"18 SPCS","OBJECT_NAME":"NAVSTAR 60 (USA 196)","OBJECT_ID":"2007-047A","CENTER_NAME":"EARTH","REF_FRAME":"TEME","TIME_SYSTEM":"UTC","MEAN_ELEMENT_THEORY":"SGP4","EPOCH":"2024-02-16T15:38:47.544288","MEAN_MOTION":"2.00570768","ECCENTRICITY":"0.01521600","INCLINATION":"53.5421","RA_OF_ASC_NODE":"115.2856","ARG_OF_PERICENTER":"73.7681","MEAN_ANOMALY":"287.9508","EPHEMERIS_TYPE":"0","CLASSIFICATION_TYPE":"U","NORAD_CAT_ID":"32260","ELEMENT_SET_NO":"999","REV_AT_EPOCH":"11973","BSTAR":"0.00000000000000","MEAN_MOTION_DOT":"-0.00000044","MEAN_MOTION_DDOT":"0.0000000000000","SEMIMAJOR_AXIS":"26559.715","PERIOD":"717.951","APOAPSIS":"20585.713","PERIAPSIS":"19777.448","OBJECT_TYPE":"PAYLOAD","RCS_SIZE":"LARGE","COUNTRY_CODE":"US","LAUNCH_DATE":"2007-10-17","SITE":"AFETR","DECAY_DATE":null,"FILE":"4191255","GP_ID":"249477047","TLE_LINE0":"0 NAVSTAR 60 (USA 196)","TLE_LINE1":"1 32260U 07047A   24047.65193917 -.00000044  00000-0  00000-0 0  9998","TLE_LINE2":"2 32260  53.5421 115.2856 0152160  73.7681 287.9508  2.00570768119735"},{"CCSDS_OMM_VERS":"2.0","COMMENT":"GENERATED VIA SPACE-TRACK.ORG API","CREATION_DATE":"2024-02-17T06:46:22","ORIGINATOR":"18 SPCS","OBJECT_NAME":"NAVSTAR 60 (USA 196)","OBJECT_ID":"2007-047A","CENTER_NAME":"EARTH","REF_FRAME":"TEME","TIME_SYSTEM":"UTC","MEAN_ELEMENT_THEORY":"SGP4","EPOCH":"2024-02-16T15:38:47.544288","MEAN_MOTION":"2.00570768","ECCENTRICITY":"0.01521600","INCLINATION":"53.5421","RA_OF_ASC_NODE":"115.2856","ARG_OF_PERICENTER":"73.7681","MEAN_ANOMALY":"287.9508","EPHEMERIS_TYPE":"0","CLASSIFICATION_TYPE":"U","NORAD_CAT_ID":"32260","ELEMENT_SET_NO":"999","REV_AT_EPOCH":"11975","BSTAR":"0.00000000000000","MEAN_MOTION_DOT":"-0.00000044","MEAN_MOTION_DDOT":"0.0000000000000","SEMIMAJOR_AXIS":"26559.715","PERIOD":"717.951","APOAPSIS":"20585.713","PERIAPSIS":"19777.448","OBJECT_TYPE":"PAYLOAD","RCS_SIZE":"LARGE","COUNTRY_CODE":"US","LAUNCH_DATE":"2007-10-17","SITE":"AFETR","DECAY_DATE":null,"FILE":"4190767","GP_ID":"249454040","TLE_LINE0":"0 NAVSTAR 60 (USA 196)","TLE_LINE1":"1 32260U 07047A   24047.65193917 -.00000044  00000-0  00000+0 0  9997","TLE_LINE2":"2 32260  53.5421 115.2856 0152160  73.7681 287.9508  2.00570768119757"},{"CCSDS_OMM_VERS":"2.0","COMMENT":"GENERATED VIA SPACE-TRACK.ORG API","CREATION_DATE":"2024-02-17T03:47:55","ORIGINATOR":"18 SPCS","OBJECT_NAME":"NAVSTAR 47 (USA 150)","OBJECT_ID":"2000-025A","CENTER_NAME":"EARTH","REF_FRAME":"TEME","TIME_SYSTEM":"UTC","MEAN_ELEMENT_THEORY":"SGP4","EPOCH":"2024-02-16T15:40:39.935136","MEAN_MOTION":"2.00558128","ECCENTRICITY":"0.00398840","INCLINATION":"54.5705","RA_OF_ASC_NODE":"53.8365","ARG_OF_PERICENTER":"212.0575","MEAN_ANOMALY":"257.8805","EPHEMERIS_TYPE":"0","CLASSIFICATION_TYPE":"U","NORAD_CAT_ID":"26360","ELEMENT_SET_NO":"999","REV_AT_EPOCH":"17419","BSTAR":"0.00000000000000","MEAN_MOTION_DOT":"-0.00000054","MEAN_MOTION_DDOT":"0.0000000000000","SEMIMAJOR_AXIS":"26560.831","PERIOD":"717.996","APOAPSIS":"20288.632","PERIAPSIS":"20076.761","OBJECT_TYPE":"PAYLOAD","RCS_SIZE":"LARGE","COUNTRY_CODE":"US","LAUNCH_DATE":"2000-05-11","SITE":"AFETR","DECAY_DATE":null,"FILE":"4190592","GP_ID":"249429604","TLE_LINE0":"0 NAVSTAR 47 (USA 150)","TLE_LINE1":"1 26360U 00025A   24047.65323999 -.00000054  00000-0  00000-0 0  9997","TLE_LINE2":"2 26360  54.5705  53.8365 0039884 212.0575 257.8805  2.00558128174197"},{"CCSDS_OMM_VERS":"2.0","COMMENT":"GENERATED VIA SPACE-TRACK.ORG API","CREATION_DATE":"2024-02-17T03:47:55","ORIGINATOR":"18 SPCS","OBJECT_NAME":"NAVSTAR 81 (USA 319)","OBJECT_ID":"2021-054A","CENTER_NAME":"EARTH","REF_FRAME":"TEME","TIME_SYSTEM":"UTC","MEAN_ELEMENT_THEORY":"SGP4","EPOCH":"2024-02-16T16:20:13.572960","MEAN_MOTION":"2.00564830","ECCENTRICITY":"0.00140540","INCLINATION":"55.3621","RA_OF_ASC_NODE":"6.5993","ARG_OF_PERICENTER":"226.1905","MEAN_ANOMALY":"310.7425","EPHEMERIS_TYPE":"0","CLASSIFICATION_TYPE":"U","NORAD_CAT_ID":"48859","ELEMENT_SET_NO":"999","REV_AT_EPOCH":"1967","BSTAR":"0.00000000000000","MEAN_MOTION_DOT":"-0.00000098","MEAN_MOTION_DDOT":"0.0000000000000","SEMIMAJOR_AXIS":"26560.240","PERIOD":"717.972","APOAPSIS":"20219.432","PERIAPSIS":"20144.777","OBJECT_TYPE":"PAYLOAD","RCS_SIZE":"LARGE","COUNTRY_CODE":"US","LAUNCH_DATE":"2021-06-17","SITE":"AFETR","DECAY_DATE":null,"FILE":"4190592","GP_ID":"249443226","TLE_LINE0":"0 NAVSTAR 81 (USA 319)","TLE_LINE1":"1 48859U 21054A   24047.68071265 -.00000098  00000-0  00000-0 0  9996","TLE_LINE2":"2 48859  55.3621   6.5993 0014054 226.1905 310.7425  2.00564830 19672"},{"CCSDS_OMM_VERS":"2.0","COMMENT":"GENERATED VIA SPACE-TRACK.ORG API","CREATION_DATE":"2024-02-17T03:47:55","ORIGINATOR":"18 SPCS","OBJECT_NAME":"NAVSTAR 75 (USA 265)","OBJECT_ID":"2015-062A","CENTER_NAME":"EARTH","REF_FRAME":"TEME","TIME_SYSTEM":"UTC","MEAN_ELEMENT_THEORY":"SGP4","EPOCH":"2024-02-16T16:53:55.989600","MEAN_MOTION":"2.00562230","ECCENTRICITY":"0.00947130","INCLINATION":"56.3007","RA_OF_ASC_NODE":"63.8342","ARG_OF_PERICENTER":"224.7989","MEAN_ANOMALY":"134.4731","EPHEMERIS_TYPE":"0","CLASSIFICATION_TYPE":"U","NORAD_CAT_ID":"41019","ELEMENT_SET_NO":"999","REV_AT_EPOCH":"6075","BSTAR":"0.00000000000000","MEAN_MOTION_DOT":"-0.00000043","MEAN_MOTION_DDOT":"0.0000000000000","SEMIMAJOR_AXIS":"26560.469","PERIOD":"717.982","APOAPSIS":"20433.896","PERIAPSIS":"19930.772","OBJECT_TYPE":"PAYLOAD","RCS_SIZE":"LARGE","COUNTRY_CODE":"US","LAUNCH_DATE":"2015-10-31","SITE":"AFETR","DECAY_DATE":null,"FILE":"4190592","GP_ID":"249438030","TLE_LINE0":"0 NAVSTAR 75 (USA 265)","TLE_LINE1":"1 41019U 15062A   24047.70412025 -.00000043  00000-0  00000-0 0  9995","TLE_LINE2":"2 41019  56.3007  63.8342 0094713 224.7989 134.4731  2.00562230 60750"},{"CCSDS_OMM_VERS":"2.0","COMMENT":"GENERATED VIA SPACE-TRACK.ORG API","CREATION_DATE":"2024-02-17T03:47:55","ORIGINATOR":"18 SPCS","OBJECT_NAME":"NAVSTAR 79 (USA 304)","OBJECT_ID":"2020-041A","CENTER_NAME":"EARTH","REF_FRAME":"TEME","TIME_SYSTEM":"UTC","MEAN_ELEMENT_THEORY":"SGP4","EPOCH":"2024-02-16T17:14:55.056192","MEAN_MOTION":"2.00559975","ECCENTRICITY":"0.00402960","INCLINATION":"56.0226","RA_OF_ASC_NODE":"62.1999","ARG_OF_PERICENTER":"193.4284","MEAN_ANOMALY":"208.6233","EPHEMERIS_TYPE":"0","CLASSIFICATION_TYPE":"U","NORAD_CAT_ID":"45854","ELEMENT_SET_NO":"999","REV_AT_EPOCH":"2696","BSTAR":"0.00000000000000","MEAN_MOTION_DOT":"-0.00000044","MEAN_MOTION_DDOT":"0.0000000000000","SEMIMAJOR_AXIS":"26560.668","PERIOD":"717.990","APOAPSIS":"20289.562","PERIAPSIS":"20075.504","OBJECT_TYPE":"PAYLOAD","RCS_SIZE":"LARGE","COUNTRY_CODE":"US","LAUNCH_DATE":"2020-06-30","SITE":"AFETR","DECAY_DATE":null,"FILE":"4190592","GP_ID":"249441610","TLE_LINE0":"0 NAVSTAR 79 (USA 304)","TLE_LINE1":"1 45854U 20041A   24047.71869278 -.00000044  00000-0  00000-0 0  9997","TLE_LINE2":"2 45854  56.0226  62.1999 0040296 193.4284 208.6233  2.00559975 26966"},{"CCSDS_OMM_VERS":"2.0","COMMENT":"GENERATED VIA SPACE-TRACK.ORG API","CREATION_DATE":"2024-02-17T17:15:21","ORIGINATOR":"18 SPCS","OBJECT_NAME":"NAVSTAR 48 (USA 151)","OBJECT_ID":"2000-040A","CENTER_NAME":"EARTH","REF_FRAME":"TEME","TIME_SYSTEM":"UTC","MEAN_ELEMENT_THEORY":"SGP4","EPOCH":"2024-02-16T17:32:08.000160","MEAN_MOTION":"2.00558380","ECCENTRICITY":"0.01473210","INCLINATION":"55.1215","RA_OF_ASC_NODE":"249.0162","ARG_OF_PERICENTER":"294.2522","MEAN_ANOMALY":"72.2133","EPHEMERIS_TYPE":"0","CLASSIFICATION_TYPE":"U","NORAD_CAT_ID":"26407","ELEMENT_SET_NO":"999","REV_AT_EPOCH":"17287","BSTAR":"0.00000000000000","MEAN_MOTION_DOT":"0.00000064","MEAN_MOTION_DDOT":"0.0000000000000","SEMIMAJOR_AXIS":"26560.809","PERIOD":"717.995","APOAPSIS":"20573.971","PERIAPSIS":"19791.378","OBJECT_TYPE":"PAYLOAD","RCS_SIZE":"LARGE","COUNTRY_CODE":"US","LAUNCH_DATE":"2000-07-16","SITE":"AFETR","DECAY_DATE":null,"FILE":"4191255","GP_ID":"249473902","TLE_LINE0":"0 NAVSTAR 48 (USA 151)","TLE_LINE1":"1 26407U 00040A   24047.73064815  .00000064  00000-0  00000-0 0  9994","TLE_LINE2":"2 26407  55.1215 249.0162 0147321 294.2522  72.2133  2.00558380172872"}]